{"type": "FeatureCollection", "features": [ {"type": "Feature", "properties": {"norad_id": 34571, "name": "COSMOS 2251 DEB", "group": "cosmos-2251-debris", "lat": 22.33163473894763, "lon": 170.21092132498353, "alt_km": 774.3292816168469, "timestamp": "2025-12-22T20:43:46.242765+00:00", "meta": {"OBJECT_NAME": "COSMOS 2251 DEB", "OBJECT_ID": "1993-036VH", "EPOCH": "2025-12-21T21:25:20.768736", "MEAN_MOTION": 14.4895116, "ECCENTRICITY": 0.00652122, "INCLINATION": 74.039, "RA_OF_ASC_NODE": 165.2791, "ARG_OF_PERICENTER": 198.2553, "MEAN_ANOMALY": 161.6266, "EPHEMERIS_TYPE": 0, "CLASSIFICATION_TYPE": "U", "NORAD_CAT_ID": 34571, "ELEMENT_SET_NO": 999, "REV_AT_EPOCH": 87426, "BSTAR": 0.0025690074, "MEAN_MOTION_DOT": 9.985e-05, "MEAN_MOTION_DDOT": 0}, "tle": {"line1": "1 34571U 93036VH  25355.89260149  .00009985  00000+0  25690-2 0  9994", "line2": "2 34571  74.0390 165.2791 0065212 198.2553 161.6266 14.48951160874269"}}, "geometry": {"type": "Point", "coordinates": [170.21092132498353, 22.33163473894763]}}, {"type": "Feature", "properties": {"norad_id": 34572, "name": "COSMOS 2251 DEB", "group": "cosmos-2251-debris", "lat": -63.78245950862549, "lon": 60.85281197157699, "alt_km": 755.2944021810135, "timestamp": "2025-12-22T20:43:46.242774+00:00", "meta": {"OBJECT_NAME": "COSMOS 2251 DEB", "OBJECT_ID": "1993-036VJ", "EPOCH": "2025-12-22T08:04:06.005568", "MEAN_MOTION": 14.50188694, "ECCENTRICITY": 0.00616659, "INCLINATION": 74.0115, "RA_OF_ASC_NODE": 97.4527, "ARG_OF_PERICENTER": 169.5509, "MEAN_ANOMALY": 247.8934, "EPHEMERIS_TYPE": 0, "CLASSIFICATION_TYPE": "U", "NORAD_CAT_ID": 34572, "ELEMENT_SET_NO": 999, "REV_AT_EPOCH": 87517, "BSTAR": 0.0026494819, "MEAN_MOTION_DOT": 0.00010544, "MEAN_MOTION_DDOT": 0}, "tle": {"line1": "1 34572U 93036VJ  25356.33618062  .00010544  00000+0  26495-2 0  9993", "line2": "2 34572  74.0115  97.4527 0061665 169.5509 247.8934 14.50188694875175"}}, "geometry": {"type": "Point", "coordinates": [60.85281197157699, -63.78245950862549]}}, {"type": "Feature", "properties": {"norad_id": 34574, "name": "COSMOS 2251 DEB", "group": "cosmos-2251-debris", "lat": -25.078240654084304, "lon": -148.79660623635766, "alt_km": 709.6690648252479, "timestamp": "2025-12-22T20:43:46.242785+00:00", "meta": {"OBJECT_NAME": "COSMOS 2251 DEB", "OBJECT_ID": "1993-036VL", "EPOCH": "2025-12-22T03:43:37.953696", "MEAN_MOTION": 14.70698881, "ECCENTRICITY": 0.00671818, "INCLINATION": 74.0679, "RA_OF_ASC_NODE": 24.8931, "ARG_OF_PERICENTER": 42.8565, "MEAN_ANOMALY": 13.7462, "EPHEMERIS_TYPE": 0, "CLASSIFICATION_TYPE": "U", "NORAD_CAT_ID": 34574, "ELEMENT_SET_NO": 999, "REV_AT_EPOCH": 88917, "BSTAR": 0.00094180568, "MEAN_MOTION_DOT": 5.915e-05, "MEAN_MOTION_DDOT": 0}, "tle": {"line1": "1 34574U 93036VL  25356.15530039  .00005915  00000+0  94181-3 0  9996", "line2": "2 34574  74.0679  24.8931 0067181  42.8565  13.7462 14.70698881889176"}}, "geometry": {"type": "Point", "coordinates": [-148.79660623635766, -25.078240654084304]}}, {"type": "Feature", "properties": {"norad_id": 34576, "name": "COSMOS 2251 DEB", "group": "cosmos-2251-debris", "lat": -17.205609280909144, "lon": 113.93140012448792, "alt_km": 711.8818659137969, "timestamp": "2025-12-22T20:43:46.242794+00:00", "meta": {"OBJECT_NAME": "COSMOS 2251 DEB", "OBJECT_ID": "1993-036VN", "EPOCH": "2025-12-22T07:44:16.997280", "MEAN_MOTION": 14.55488291, "ECCENTRICITY": 0.00082401, "INCLINATION": 74.0347, "RA_OF_ASC_NODE": 120.0424, "ARG_OF_PERICENTER": 257.8353, "MEAN_ANOMALY": 129.0853, "EPHEMERIS_TYPE": 0, "CLASSIFICATION_TYPE": "U", "NORAD_CAT_ID": 34576, "ELEMENT_SET_NO": 999, "REV_AT_EPOCH": 88606, "BSTAR": 0.00083691505, "MEAN_MOTION_DOT": 3.617e-05, "MEAN_MOTION_DDOT": 0}, "tle": {"line1": "1 34576U 93036VN  25356.32241895  .00003617  00000+0  83692-3 0  9998", "line2": "2 34576  74.0347 120.0424 0008240 257.8353 129.0853 14.55488291886065"}}, "geometry": {"type": "Point", "coordinates": [113.93140012448792, -17.205609280909144]}}, {"type": "Feature", "properties": {"norad_id": 34579, "name": "COSMOS 2251 DEB", "group": "cosmos-2251-debris", "lat": -10.451864352109451, "lon": 28.068833659429917, "alt_km": 741.8185256056495, "timestamp": "2025-12-22T20:43:46.242804+00:00", "meta": {"OBJECT_NAME": "COSMOS 2251 DEB", "OBJECT_ID": "1993-036VR", "EPOCH": "2025-12-22T08:28:01.171776", "MEAN_MOTION": 14.45333214, "ECCENTRICITY": 0.00275014, "INCLINATION": 74.0515, "RA_OF_ASC_NODE": 205.996, "ARG_OF_PERICENTER": 273.2169, "MEAN_ANOMALY": 140.419, "EPHEMERIS_TYPE": 0, "CLASSIFICATION_TYPE": "U", "NORAD_CAT_ID": 34579, "ELEMENT_SET_NO": 999, "REV_AT_EPOCH": 88313, "BSTAR": 0.0003368644, "MEAN_MOTION_DOT": 1.162e-05, "MEAN_MOTION_DDOT": 0}, "tle": {"line1": "1 34579U 93036VR  25356.35279134  .00001162  00000+0  33686-3 0  9992", "line2": "2 34579  74.0515 205.9960 0027501 273.2169 140.4190 14.45333214883130"}}, "geometry": {"type": "Point", "coordinates": [28.068833659429917, -10.451864352109451]}}, {"type": "Feature", "properties": {"norad_id": 34582, "name": "COSMOS 2251 DEB", "group": "cosmos-2251-debris", "lat": 54.54053634006687, "lon": -82.72529066598219, "alt_km": 722.7071010057125, "timestamp": "2025-12-22T20:43:46.242814+00:00", "meta": {"OBJECT_NAME": "COSMOS 2251 DEB", "OBJECT_ID": "1993-036VU", "EPOCH": "2025-12-22T02:09:59.484384", "MEAN_MOTION": 14.43370574, "ECCENTRICITY": 0.00483706, "INCLINATION": 74.0197, "RA_OF_ASC_NODE": 254.9878, "ARG_OF_PERICENTER": 3.1051, "MEAN_ANOMALY": 357.0396, "EPHEMERIS_TYPE": 0, "CLASSIFICATION_TYPE": "U", "NORAD_CAT_ID": 34582, "ELEMENT_SET_NO": 999, "REV_AT_EPOCH": 88082, "BSTAR": 0.00071548422, "MEAN_MOTION_DOT": 2.422e-05, "MEAN_MOTION_DDOT": 0}, "tle": {"line1": "1 34582U 93036VU  25356.09027181  .00002422  00000+0  71548-3 0  9999", "line2": "2 34582  74.0197 254.9878 0048370   3.1051 357.0396 14.43370574880824"}}, "geometry": {"type": "Point", "coordinates": [-82.72529066598219, 54.54053634006687]}}, {"type": "Feature", "properties": {"norad_id": 34588, "name": "COSMOS 2251 DEB", "group": "cosmos-2251-debris", "lat": 60.31697775141989, "lon": -80.37310890490946, "alt_km": 753.1261698807457, "timestamp": "2025-12-22T20:43:46.242824+00:00", "meta": {"OBJECT_NAME": "COSMOS 2251 DEB", "OBJECT_ID": "1993-036WA", "EPOCH": "2025-12-22T04:32:01.905216", "MEAN_MOTION": 14.42047957, "ECCENTRICITY": 0.00192951, "INCLINATION": 74.0428, "RA_OF_ASC_NODE": 250.7463, "ARG_OF_PERICENTER": 302.4846, "MEAN_ANOMALY": 220.197, "EPHEMERIS_TYPE": 0, "CLASSIFICATION_TYPE": "U", "NORAD_CAT_ID": 34588, "ELEMENT_SET_NO": 999, "REV_AT_EPOCH": 88086, "BSTAR": 0.00036870477, "MEAN_MOTION_DOT": 1.187e-05, "MEAN_MOTION_DDOT": 0}, "tle": {"line1": "1 34588U 93036WA  25356.18891094  .00001187  00000+0  36870-3 0  9993", "line2": "2 34588  74.0428 250.7463 0019295 302.4846 220.1970 14.42047957880869"}}, "geometry": {"type": "Point", "coordinates": [-80.37310890490946, 60.31697775141989]}}, {"type": "Feature", "properties": {"norad_id": 34589, "name": "COSMOS 2251 DEB", "group": "cosmos-2251-debris", "lat": 30.476905748301192, "lon": 48.55090241264578, "alt_km": 823.4918702062832, "timestamp": "2025-12-22T20:43:46.242834+00:00", "meta": {"OBJECT_NAME": "COSMOS 2251 DEB", "OBJECT_ID": "1993-036WB", "EPOCH": "2025-12-21T14:08:27.386304", "MEAN_MOTION": 13.86061939, "ECCENTRICITY": 0.0252385, "INCLINATION": 73.9249, "RA_OF_ASC_NODE": 40.952, "ARG_OF_PERICENTER": 342.507, "MEAN_ANOMALY": 169.9679, "EPHEMERIS_TYPE": 0, "CLASSIFICATION_TYPE": "U", "NORAD_CAT_ID": 34589, "ELEMENT_SET_NO": 999, "REV_AT_EPOCH": 84834, "BSTAR": 0.00033302, "MEAN_MOTION_DOT": 4.67e-06, "MEAN_MOTION_DDOT": 0}, "tle": {"line1": "1 34589U 93036WB  25355.58920586  .00000467  00000+0  33302-3 0  9993", "line2": "2 34589  73.9249  40.9520 0252385 342.5070 169.9679 13.86061939848341"}}, "geometry": {"type": "Point", "coordinates": [48.55090241264578, 30.476905748301192]}}, {"type": "Feature", "properties": {"norad_id": 34590, "name": "COSMOS 2251 DEB", "group": "cosmos-2251-debris", "lat": -2.431130846766489, "lon": -57.296838742268946, "alt_km": 698.0172430064013, "timestamp": "2025-12-22T20:43:46.242844+00:00", "meta": {"OBJECT_NAME": "COSMOS 2251 DEB", "OBJECT_ID": "1993-036WC", "EPOCH": "2025-12-22T06:27:48.696768", "MEAN_MOTION": 14.54836629, "ECCENTRICITY": 0.00680342, "INCLINATION": 74.0443, "RA_OF_ASC_NODE": 304.5231, "ARG_OF_PERICENTER": 71.336, "MEAN_ANOMALY": 55.0668, "EPHEMERIS_TYPE": 0, "CLASSIFICATION_TYPE": "U", "NORAD_CAT_ID": 34590, "ELEMENT_SET_NO": 999, "REV_AT_EPOCH": 89259, "BSTAR": 0.0001329784, "MEAN_MOTION_DOT": 5.59e-06, "MEAN_MOTION_DDOT": 0}, "tle": {"line1": "1 34590U 93036WC  25356.26931362  .00000559  00000+0  13298-3 0  9999", "line2": "2 34590  74.0443 304.5231 0068034  71.3360  55.0668 14.54836629892595"}}, "geometry": {"type": "Point", "coordinates": [-57.296838742268946, -2.431130846766489]}}, {"type": "Feature", "properties": {"norad_id": 34609, "name": "COSMOS 2251 DEB", "group": "cosmos-2251-debris", "lat": 6.801921059125252, "lon": 90.21444041959947, "alt_km": 768.9120510230314, "timestamp": "2025-12-22T20:43:46.242853+00:00", "meta": {"OBJECT_NAME": "COSMOS 2251 DEB", "OBJECT_ID": "1993-036WE", "EPOCH": "2025-12-22T12:18:42.095808", "MEAN_MOTION": 14.21825611, "ECCENTRICITY": 0.01456888, "INCLINATION": 73.7327, "RA_OF_ASC_NODE": 88.8594, "ARG_OF_PERICENTER": 306.8419, "MEAN_ANOMALY": 64.3001, "EPHEMERIS_TYPE": 0, "CLASSIFICATION_TYPE": "U", "NORAD_CAT_ID": 34609, "ELEMENT_SET_NO": 999, "REV_AT_EPOCH": 86771, "BSTAR": 0.00071152645, "MEAN_MOTION_DOT": 1.717e-05, "MEAN_MOTION_DDOT": 0}, "tle": {"line1": "1 34609U 93036WE  25356.51298722  .00001717  00000+0  71153-3 0  9995", "line2": "2 34609  73.7327  88.8594 0145688 306.8419  64.3001 14.21825611867712"}}, "geometry": {"type": "Point", "coordinates": [90.21444041959947, 6.801921059125252]}}]}